{"updated_at":"2026-06-14T00:15:38.702233Z","count":200,"data":[{"NORAD_CAT_ID":"69329","OBJECT_NAME":"STARLINK-37733","OBJECT_ID":"2026-122A","EPOCH":"2026-06-13T20:00:01.999008","TLE_LINE1":"1 69329U 26122A   26164.83335647 -.00074540  00000-0 -39110-3 0  9999","TLE_LINE2":"2 69329  97.2837 194.0797 0000799  87.3041  54.0809 15.80852268  2814"},{"NORAD_CAT_ID":"69330","OBJECT_NAME":"STARLINK-37772","OBJECT_ID":"2026-122B","EPOCH":"2026-06-13T20:00:01.999008","TLE_LINE1":"1 69330U 26122B   26164.83335647 -.00057142  00000-0 -29918-3 0  9995","TLE_LINE2":"2 69330  97.2833 194.0924 0001374  87.0821  84.1469 15.80841489  2760"},{"NORAD_CAT_ID":"69331","OBJECT_NAME":"STARLINK-37768","OBJECT_ID":"2026-122C","EPOCH":"2026-06-13T20:00:01.999008","TLE_LINE1":"1 69331U 26122C   26164.83335647 -.00087432  00000-0 -45951-3 0  9996","TLE_LINE2":"2 69331  97.2833 194.0958 0001095  96.8110  83.8557 15.80853585  2761"},{"NORAD_CAT_ID":"69332","OBJECT_NAME":"STARLINK-37833","OBJECT_ID":"2026-122D","EPOCH":"2026-06-13T20:00:01.999008","TLE_LINE1":"1 69332U 26122D   26164.83335647 -.00027473  00000-0 -14306-3 0  9996","TLE_LINE2":"2 69332  97.2832 194.0985 0001193  92.3387  91.1246 15.80828725  2762"},{"NORAD_CAT_ID":"69333","OBJECT_NAME":"STARLINK-37818","OBJECT_ID":"2026-122E","EPOCH":"2026-06-13T20:00:01.999008","TLE_LINE1":"1 69333U 26122E   26164.83335647 -.00006263  00000-0 -31975-4 0  9993","TLE_LINE2":"2 69333  97.2831 194.0942 0001290  95.8630  76.5797 15.80818615  2813"},{"NORAD_CAT_ID":"69334","OBJECT_NAME":"STARLINK-37868","OBJECT_ID":"2026-122F","EPOCH":"2026-06-13T20:00:01.999008","TLE_LINE1":"1 69334U 26122F   26164.83335647 -.01200128  00000-0 -64312-2 0  9990","TLE_LINE2":"2 69334  97.2826 194.1101 0001437  87.9658 124.1012 15.82754112  2814"},{"NORAD_CAT_ID":"69335","OBJECT_NAME":"STARLINK-37877","OBJECT_ID":"2026-122G","EPOCH":"2026-06-13T20:00:01.999008","TLE_LINE1":"1 69335U 26122G   26164.83335647 -.01199667  00000-0 -64310-2 0  9994","TLE_LINE2":"2 69335  97.2826 194.1103 0001543  81.1946 131.6152 15.82744498  2815"},{"NORAD_CAT_ID":"69336","OBJECT_NAME":"STARLINK-37791","OBJECT_ID":"2026-122H","EPOCH":"2026-06-13T20:00:01.999008","TLE_LINE1":"1 69336U 26122H   26164.83335647 -.02066617  00000-0 -10633-1 0  9992","TLE_LINE2":"2 69336  97.2822 194.1136 0001699  90.7882 128.9856 15.84254109  2812"},{"NORAD_CAT_ID":"69337","OBJECT_NAME":"STARLINK-37765","OBJECT_ID":"2026-122J","EPOCH":"2026-06-13T20:00:01.999008","TLE_LINE1":"1 69337U 26122J   26164.83335647  .00006282  00000-0  33546-4 0  9992","TLE_LINE2":"2 69337  97.2831 194.1167 0000839  87.6572 138.7057 15.80793416  2865"},{"NORAD_CAT_ID":"69338","OBJECT_NAME":"STARLINK-37788","OBJECT_ID":"2026-122K","EPOCH":"2026-06-13T20:00:01.999008","TLE_LINE1":"1 69338U 26122K   26164.83335647 -.00026317  00000-0 -13715-3 0  9991","TLE_LINE2":"2 69338  97.2830 194.1182 0001366  86.8853 143.4424 15.80802444  2819"},{"NORAD_CAT_ID":"69339","OBJECT_NAME":"STARLINK-37743","OBJECT_ID":"2026-122L","EPOCH":"2026-06-13T20:00:01.999008","TLE_LINE1":"1 69339U 26122L   26164.83335647 -.00060187  00000-0 -31537-3 0  9997","TLE_LINE2":"2 69339  97.2830 194.1121 0001571  95.5272 121.4522 15.80834394  2817"},{"NORAD_CAT_ID":"69340","OBJECT_NAME":"STARLINK-37780","OBJECT_ID":"2026-122M","EPOCH":"2026-06-13T20:00:01.999008","TLE_LINE1":"1 69340U 26122M   26164.83335647 -.00038094  00000-0 -19888-3 0  9996","TLE_LINE2":"2 69340  97.2835 194.1148 0001285  85.5184 137.0031 15.80829314  2865"},{"NORAD_CAT_ID":"69325","OBJECT_NAME":"QIANFAN-163","OBJECT_ID":"2026-121A","EPOCH":"2026-06-07T22:57:09.243936","TLE_LINE1":"1 69325U 26121A   26158.95635699  .00000032  00000-0  25988-4 0  9992","TLE_LINE2":"2 69325  89.0167 301.4498 0019200 214.2671 145.7248 13.60351284   905"},{"NORAD_CAT_ID":"69326","OBJECT_NAME":"QIANFAN-164","OBJECT_ID":"2026-121B","EPOCH":"2026-06-11T09:53:52.001952","TLE_LINE1":"1 69326U 26121B   26162.41240743  .00000112  00000-0  13228-3 0  9993","TLE_LINE2":"2 69326  89.0157 301.0998 0019383 205.3125 154.7084 13.60355109  1373"},{"NORAD_CAT_ID":"69327","OBJECT_NAME":"CZ-12B R/B","OBJECT_ID":"2026-121C","EPOCH":"2026-06-13T19:25:44.425344","TLE_LINE1":"1 69327U 26121C   26164.80954196  .00000202  00000-0  10017-3 0  9996","TLE_LINE2":"2 69327  89.0315 300.7886 0195487  17.8794 342.9137 14.04085686  1751"},{"NORAD_CAT_ID":"69310","OBJECT_NAME":"STARLINK-37794","OBJECT_ID":"2026-119Q","EPOCH":"2026-06-13T20:00:01.999008","TLE_LINE1":"1 69310U 26119Q   26164.83335647 -.02526557  00000-0 -18109-1 0  9990","TLE_LINE2":"2 69310  97.2832 190.5088 0001498  87.9244 218.1983 15.77253786  3500"},{"NORAD_CAT_ID":"69311","OBJECT_NAME":"STARLINK-37795","OBJECT_ID":"2026-119R","EPOCH":"2026-06-13T20:00:01.999008","TLE_LINE1":"1 69311U 26119R   26164.83335647 -.02014066  00000-0 -26601-1 0  9994","TLE_LINE2":"2 69311  97.2843 190.4551 0001851  79.1634 106.3433 15.61731903  3509"},{"NORAD_CAT_ID":"69312","OBJECT_NAME":"STARLINK-37790","OBJECT_ID":"2026-119S","EPOCH":"2026-06-13T20:10:46.704576","TLE_LINE1":"1 69312U 26119S   26164.84081834  .00091520  00000-0  47270-3 0  9995","TLE_LINE2":"2 69312  97.2825 190.5206 0001348  85.9989 274.1434 15.80854806  3512"},{"NORAD_CAT_ID":"69313","OBJECT_NAME":"STARLINK-37676","OBJECT_ID":"2026-119T","EPOCH":"2026-06-13T20:07:51.833568","TLE_LINE1":"1 69313U 26119T   26164.83879437  .00158971  00000-0  81327-3 0  9994","TLE_LINE2":"2 69313  97.2825 190.5230 0001669  78.8893 281.2563 15.80879411  3512"},{"NORAD_CAT_ID":"69314","OBJECT_NAME":"STARLINK-37617","OBJECT_ID":"2026-119U","EPOCH":"2026-06-13T20:06:36.472032","TLE_LINE1":"1 69314U 26119U   26164.83792213  .00096554  00000-0  49827-3 0  9998","TLE_LINE2":"2 69314  97.2826 190.5241 0001402  66.5986 293.5430 15.80859019  3519"},{"NORAD_CAT_ID":"69315","OBJECT_NAME":"STARLINK-37627","OBJECT_ID":"2026-119V","EPOCH":"2026-06-13T20:06:08.726400","TLE_LINE1":"1 69315U 26119V   26164.83760100  .00137131  00000-0  70270-3 0  9992","TLE_LINE2":"2 69315  97.2824 190.5248 0001471  93.4092 266.7345 15.80901867  3514"},{"NORAD_CAT_ID":"69316","OBJECT_NAME":"STARLINK-37738","OBJECT_ID":"2026-119W","EPOCH":"2026-06-13T20:09:23.039136","TLE_LINE1":"1 69316U 26119W   26164.83984999  .00183315  00000-0  93456-3 0  9993","TLE_LINE2":"2 69316  97.2820 190.5213 0001357  89.8690 270.2733 15.80891849  3518"},{"NORAD_CAT_ID":"69317","OBJECT_NAME":"STARLINK-37799","OBJECT_ID":"2026-119X","EPOCH":"2026-06-13T20:07:10.467840","TLE_LINE1":"1 69317U 26119X   26164.83831560  .00085101  00000-0  43979-3 0  9998","TLE_LINE2":"2 69317  97.2823 190.5234 0001298  84.6775 275.4641 15.80861571  2261"},{"NORAD_CAT_ID":"69318","OBJECT_NAME":"STARLINK-37802","OBJECT_ID":"2026-119Y","EPOCH":"2026-06-13T20:04:15.748896","TLE_LINE1":"1 69318U 26119Y   26164.83629339  .00159537  00000-0  81657-3 0  9998","TLE_LINE2":"2 69318  97.2825 190.5268 0001562  95.7575 264.3871 15.80867322  3517"},{"NORAD_CAT_ID":"69319","OBJECT_NAME":"STARLINK-37803","OBJECT_ID":"2026-119Z","EPOCH":"2026-06-13T20:00:01.999008","TLE_LINE1":"1 69319U 26119Z   26164.83335647 -.02617522  00000-0 -19911-1 0  9994","TLE_LINE2":"2 69319  97.2835 190.5180 0001442  89.3937 238.7626 15.75438053  3455"},{"NORAD_CAT_ID":"69320","OBJECT_NAME":"OBJECT A","OBJECT_ID":"2026-120A","EPOCH":"2026-06-07T11:06:12.288672","TLE_LINE1":"1 69320U 26120A   26158.46264223  .00009002  00000-0  24096-3 0  9997","TLE_LINE2":"2 69320  54.9967  71.5399 0009599 294.3963  65.6063 15.38803685  1198"},{"NORAD_CAT_ID":"69321","OBJECT_NAME":"OBJECT B","OBJECT_ID":"2026-120B","EPOCH":"2026-06-13T08:54:05.544000","TLE_LINE1":"1 69321U 26120B   26164.37089750  .00009444  00000-0  25182-3 0  9992","TLE_LINE2":"2 69321  54.9985  44.9148 0009622 319.6353  40.3961 15.38860579  2100"},{"NORAD_CAT_ID":"69322","OBJECT_NAME":"OBJECT C","OBJECT_ID":"2026-120C","EPOCH":"2026-06-07T21:56:00.773376","TLE_LINE1":"1 69322U 26120C   26158.91389784  .00016153  00000-0  41736-3 0  9994","TLE_LINE2":"2 69322  54.9968  69.4792 0009850 309.3319  50.6835 15.39284097  1266"},{"NORAD_CAT_ID":"69323","OBJECT_NAME":"OBJECT D","OBJECT_ID":"2026-120D","EPOCH":"2026-06-13T18:10:26.410368","TLE_LINE1":"1 69323U 26120D   26164.75725012  .00004463  00000-0  12397-3 0  9994","TLE_LINE2":"2 69323  54.9976  43.1373 0010727 333.1315  26.9156 15.38963400  2169"}]}