OBJECT_NAME,OBJECT_ID,EPOCH,MEAN_MOTION,ECCENTRICITY,INCLINATION,RA_OF_ASC_NODE,ARG_OF_PERICENTER,MEAN_ANOMALY,EPHEMERIS_TYPE,CLASSIFICATION_TYPE,NORAD_CAT_ID,ELEMENT_SET_NO,REV_AT_EPOCH,BSTAR,MEAN_MOTION_DOT,MEAN_MOTION_DDOT
STARLINK-37794,2026-119Q,2026-06-13T20:00:01.999008,15.77253786,.0001498,97.2832,190.5088,87.9244,218.1983,0,U,69310,999,350,-.18109E-1,-.2526557E-1,0
STARLINK-37795,2026-119R,2026-06-13T20:00:01.999008,15.61731903,.0001851,97.2843,190.4551,79.1634,106.3433,0,U,69311,999,350,-.26601E-1,-.2014066E-1,0
STARLINK-37790,2026-119S,2026-06-13T20:10:46.704576,15.80854806,.0001348,97.2825,190.5206,85.9989,274.1434,0,U,69312,999,351,.4727E-3,.9152E-3,0
STARLINK-37676,2026-119T,2026-06-13T20:07:51.833568,15.80879411,.0001669,97.2825,190.5230,78.8893,281.2563,0,U,69313,999,351,.81327E-3,.158971E-2,0
STARLINK-37617,2026-119U,2026-06-13T20:06:36.472032,15.80859019,.0001402,97.2826,190.5241,66.5986,293.5430,0,U,69314,999,351,.49827E-3,.96554E-3,0
STARLINK-37627,2026-119V,2026-06-13T20:06:08.726400,15.80901867,.0001471,97.2824,190.5248,93.4092,266.7345,0,U,69315,999,351,.7027E-3,.137131E-2,0
STARLINK-37738,2026-119W,2026-06-13T20:09:23.039136,15.80891849,.0001357,97.2820,190.5213,89.8690,270.2733,0,U,69316,999,351,.93456E-3,.183315E-2,0
STARLINK-37799,2026-119X,2026-06-13T20:07:10.467840,15.80861571,.0001298,97.2823,190.5234,84.6775,275.4641,0,U,69317,999,226,.43979E-3,.85101E-3,0
STARLINK-37802,2026-119Y,2026-06-13T20:04:15.748896,15.80867322,.0001562,97.2825,190.5268,95.7575,264.3871,0,U,69318,999,351,.81657E-3,.159537E-2,0
STARLINK-37803,2026-119Z,2026-06-13T20:00:01.999008,15.75438053,.0001442,97.2835,190.5180,89.3937,238.7626,0,U,69319,999,345,-.19911E-1,-.2617522E-1,0
GUOWANG TEST OBJECT A,2026-120A,2026-06-07T11:06:12.288672,15.38803685,.00095994,54.9967,71.5399,294.3963,65.6063,0,U,69320,999,119,.24095813E-3,.9002E-4,0
GUOWANG TEST OBJECT B,2026-120B,2026-06-13T08:54:05.544000,15.38860579,.00096218,54.9985,44.9148,319.6353,40.3961,0,U,69321,999,210,.25182125E-3,.9444E-4,0
GUOWANG TEST OBJECT C,2026-120C,2026-06-07T21:56:00.773376,15.39284097,.00098504,54.9968,69.4792,309.3319,50.6835,0,U,69322,999,126,.41735581E-3,.16153E-3,0
GUOWANG TEST OBJECT D,2026-120D,2026-06-13T18:10:26.410368,15.38963400,.0010727,54.9976,43.1373,333.1315,26.9156,0,U,69323,999,216,.12397E-3,.4463E-4,0
QIANFAN-163,2026-121A,2026-06-07T22:57:09.243936,13.60351284,.00192,89.0167,301.4498,214.2671,145.7248,0,U,69325,999,90,.25988E-4,.32E-6,0
QIANFAN-164,2026-121B,2026-06-11T09:53:52.001952,13.60355109,.0019383,89.0157,301.0998,205.3125,154.7084,0,U,69326,999,137,.13228E-3,.112E-5,0
CZ-12B R/B,2026-121C,2026-06-13T19:25:44.425344,14.04085686,.0195487,89.0315,300.7886,17.8794,342.9137,0,U,69327,999,175,.10017E-3,.202E-5,0
STARLINK-37733,2026-122A,2026-06-13T20:00:01.999008,15.80852268,.0000799,97.2837,194.0797,87.3041,54.0809,0,U,69329,999,281,-.3911E-3,-.7454E-3,0
STARLINK-37772,2026-122B,2026-06-13T20:00:01.999008,15.80841489,.0001374,97.2833,194.0924,87.0821,84.1469,0,U,69330,999,276,-.29918E-3,-.57142E-3,0
STARLINK-37768,2026-122C,2026-06-13T20:00:01.999008,15.80853585,.0001095,97.2833,194.0958,96.8110,83.8557,0,U,69331,999,276,-.45951E-3,-.87432E-3,0
STARLINK-37833,2026-122D,2026-06-13T20:00:01.999008,15.80828725,.0001193,97.2832,194.0985,92.3387,91.1246,0,U,69332,999,276,-.14306E-3,-.27473E-3,0
STARLINK-37818,2026-122E,2026-06-13T20:00:01.999008,15.80818615,.000129,97.2831,194.0942,95.8630,76.5797,0,U,69333,999,281,-.31975E-4,-.6263E-4,0
STARLINK-37868,2026-122F,2026-06-13T20:00:01.999008,15.82754112,.0001437,97.2826,194.1101,87.9658,124.1012,0,U,69334,999,281,-.64312E-2,-.1200128E-1,0
STARLINK-37877,2026-122G,2026-06-13T20:00:01.999008,15.82744498,.0001543,97.2826,194.1103,81.1946,131.6152,0,U,69335,999,281,-.6431E-2,-.1199667E-1,0
STARLINK-37791,2026-122H,2026-06-13T20:00:01.999008,15.84254109,.0001699,97.2822,194.1136,90.7882,128.9856,0,U,69336,999,281,-.10633E-1,-.2066617E-1,0
STARLINK-37765,2026-122J,2026-06-13T20:00:01.999008,15.80793416,.0000839,97.2831,194.1167,87.6572,138.7057,0,U,69337,999,286,.33546E-4,.6282E-4,0
STARLINK-37788,2026-122K,2026-06-13T20:00:01.999008,15.80802444,.0001366,97.2830,194.1182,86.8853,143.4424,0,U,69338,999,281,-.13715E-3,-.26317E-3,0
STARLINK-37743,2026-122L,2026-06-13T20:00:01.999008,15.80834394,.0001571,97.2830,194.1121,95.5272,121.4522,0,U,69339,999,281,-.31537E-3,-.60187E-3,0
STARLINK-37780,2026-122M,2026-06-13T20:00:01.999008,15.80829314,.0001285,97.2835,194.1148,85.5184,137.0031,0,U,69340,999,286,-.19888E-3,-.38094E-3,0
